OBJECT_NAME,OBJECT_ID,EPOCH,MEAN_MOTION,ECCENTRICITY,INCLINATION,RA_OF_ASC_NODE,ARG_OF_PERICENTER,MEAN_ANOMALY,EPHEMERIS_TYPE,CLASSIFICATION_TYPE,NORAD_CAT_ID,ELEMENT_SET_NO,REV_AT_EPOCH,BSTAR,MEAN_MOTION_DOT,MEAN_MOTION_DDOT
GAOFEN-3,2016-049A,2026-07-09T06:50:17.419776,14.42218672,.00017604,98.4020,197.7374,90.0645,270.0746,0,U,41727,999,52183,.586399E-4,.15E-5,0
SKYSAT-C4,2016-058B,2026-07-09T07:08:02.581440,15.49300988,.0003288,96.9170,211.1523,126.7848,233.3706,0,U,41771,999,54889,.25396276E-3,.13809E-3,0
SKYSAT-C5,2016-058C,2026-07-09T15:58:24.371040,15.33951399,.0001828,97.0474,230.2992,80.3892,279.7558,0,U,41772,999,54719,.3352E-3,.1094E-3,0
SKYSAT-C2,2016-058D,2026-07-08T23:51:39.410496,15.42580195,.00022198,97.0167,211.2736,17.2519,342.8804,0,U,41773,999,54841,.20101756E-3,.8655E-4,0
SKYSAT-C3,2016-058E,2026-07-08T23:40:37.758432,15.53501070,.00021056,96.9004,220.0058,133.8993,226.2436,0,U,41774,999,54949,.2692674E-3,.17017E-3,0
ALSAT-1B,2016-059C,2026-07-09T20:55:28.922592,14.72292848,.000996,97.7759,198.6565,145.2466,214.9395,0,U,41785,999,52391,.82072E-4,.472E-5,0
PATHFINDER 1,2016-059E,2026-07-09T16:52:09.501600,14.67689171,.0029544,97.8173,188.9636,132.4766,227.8944,0,U,41787,999,52301,.76166E-4,.39E-5,0
SCATSAT 1,2016-059H,2026-07-09T03:00:16.625952,14.79577282,.00547688,98.1179,254.1168,175.9673,184.1991,0,U,41790,999,10483,.12362243E-3,.892E-5,0
GOKTURK 1A,2016-073A,2026-07-09T19:39:15.839712,14.62790877,.0001436,98.1221,85.1357,79.0977,281.0387,0,U,41875,999,51213,.47131E-4,.194E-5,0
RESOURCESAT-2A,2016-074A,2026-07-09T19:18:12.212928,14.21607682,.0002697,98.7518,264.1232,39.9393,320.1982,0,U,41877,999,49751,-.11393E-4,-.69E-6,0
CARTOSAT-2D,2017-008A,2026-07-09T21:09:20.711808,15.19257957,.0005566,97.4099,249.7618,153.0475,207.1050,0,U,41948,999,52102,.99505E-4,.203E-4,0
SENTINEL-2B,2017-013A,2026-07-09T20:45:22.139712,14.30814113,.0001212,98.5682,265.3188,89.6854,270.4468,0,U,42063,999,48788,.67949E-5,-.26E-6,0
CARTOSAT-2E,2017-036C,2026-07-09T19:59:56.364864,15.19227395,.0002721,97.4267,250.2611,211.1833,148.9241,0,U,42767,999,50158,.94628E-4,.1925E-4,0
FORMOSAT-5,2017-049A,2026-07-09T19:27:26.449056,14.50906840,.0011707,98.2247,265.6173,20.1491,340.0164,0,U,42920,999,46995,.23182E-4,.48E-6,0
SENTINEL-5P,2017-064A,2026-07-09T06:20:07.097856,14.19522668,.00010927,98.7929,132.2387,91.8163,268.3138,0,U,42969,999,45269,.2704477E-4,.13E-6,0
SKYSAT-C11,2017-068A,2026-07-09T15:48:01.789056,15.59105762,.0000812,97.4368,340.4901,166.0165,194.1114,0,U,42987,999,48674,.27645E-3,.21499E-3,0
SKYSAT-C10,2017-068B,2026-07-09T15:42:35.169408,15.35042344,.0001361,97.4523,327.7297,109.0541,251.0850,0,U,42988,999,48580,.23222E-3,.7814E-4,0
SKYSAT-C9,2017-068C,2026-07-09T15:06:23.132160,15.42121068,.0009065,97.4443,328.8560,62.2816,297.9349,0,U,42989,999,48621,.2151E-3,.913E-4,0
SKYSAT-C8,2017-068D,2026-07-09T15:45:21.892896,15.37418485,.0001224,97.4543,327.6180,99.9689,260.1694,0,U,42990,999,48576,.20712E-3,.7514E-4,0
SKYSAT-C7,2017-068E,2026-07-09T15:37:10.417728,15.37370143,.0006199,97.4551,328.6033,39.6493,320.5204,0,U,42991,999,48582,.20193E-3,.7316E-4,0
SKYSAT-C6,2017-068F,2026-07-09T15:34:22.751616,15.34106572,.0005163,97.4588,328.4799,103.1836,256.9983,0,U,42992,999,48576,.19987E-3,.6518E-4,0
CARTOSAT-2F,2018-004A,2026-07-09T20:46:53.831712,15.19241385,.0002286,97.4777,250.2777,144.5233,215.6154,0,U,43111,999,47077,.63753E-4,.1275E-4,0
GAOFEN-1 02,2018-031A,2026-07-09T20:47:26.592864,14.76466876,.0001734,98.0515,253.3287,315.9392,44.1679,0,U,43259,999,44604,.58269E-4,.354E-5,0
GAOFEN-1 03,2018-031B,2026-07-09T20:15:51.376032,14.76457937,.0002835,98.0506,253.1627,29.9230,330.2141,0,U,43260,999,44603,.71906E-4,.449E-5,0
GAOFEN-1 04,2018-031D,2026-07-09T21:18:30.034368,14.76467311,.0001531,98.0516,253.3997,57.8364,302.2993,0,U,43262,999,44603,.82143E-4,.52E-5,0
SENTINEL-3B,2018-039A,2026-07-09T03:22:05.749248,14.26740920,.0001006,98.6239,257.3566,120.1387,239.9893,0,U,43437,999,42725,.38280816E-4,.49E-6,0
GAOFEN-5 01,2018-043A,2026-07-09T16:02:21.141600,14.60621115,.0002397,98.4586,162.7286,43.0598,317.0789,0,U,43461,999,43497,.53023E-4,.209E-5,0
GAOFEN-6,2018-048A,2026-07-09T21:50:31.774272,14.76379594,.0012105,98.0963,253.5997,97.2848,262.9737,0,U,43484,999,43674,.1622E-5,-.41E-6,0
GAOFEN-11 01,2018-063A,2026-07-09T21:07:46.898688,15.55954656,.0002538,97.1281,257.7029,223.4806,136.6250,0,U,43585,999,44387,.13054E-3,.8964E-4,0
ICESAT-2,2018-070A,2026-07-09T19:27:43.144128,15.28289273,.0005837,92.0085,297.0925,76.8732,283.3168,0,U,43613,999,43591,.23956E-3,.6602E-4,0
HYSIS,2018-096A,2026-07-09T19:31:25.423680,14.78663823,.0001855,97.9828,257.3831,86.7674,273.3749,0,U,43719,999,41076,.11079E-3,.76E-5,0
