GAOFEN-3                
1 41727U 16049A   26190.28492384  .00000150  00000+0  58640-4 0  9991
2 41727  98.4020 197.7374 0001760  90.0645 270.0746 14.42218672521834
SKYSAT-C4               
1 41771U 16058B   26190.29725210  .00013809  00000+0  25396-3 0  9994
2 41771  96.9170 211.1523 0003288 126.7848 233.3706 15.49300988548891
SKYSAT-C5               
1 41772U 16058C   26190.66555985  .00010940  00000+0  33520-3 0  9997
2 41772  97.0474 230.2992 0001828  80.3892 279.7558 15.33951399547197
SKYSAT-C2               
1 41773U 16058D   26189.99420614  .00008655  00000+0  20102-3 0  9994
2 41773  97.0167 211.2736 0002219  17.2519 342.8804 15.42580195548416
SKYSAT-C3               
1 41774U 16058E   26189.98654813  .00017017  00000+0  26927-3 0  9997
2 41774  96.9004 220.0058 0002105 133.8993 226.2436 15.53501070549497
ALSAT-1B                
1 41785U 16059C   26190.87186253  .00000472  00000+0  82072-4 0  9999
2 41785  97.7759 198.6565 0009960 145.2466 214.9395 14.72292848523913
PATHFINDER 1            
1 41787U 16059E   26190.70288775  .00000390  00000+0  76166-4 0  9991
2 41787  97.8173 188.9636 0029544 132.4766 227.8944 14.67689171523015
SCATSAT 1               
1 41790U 16059H   26190.12519243  .00000892  00000+0  12362-3 0  9992
2 41790  98.1179 254.1168 0054768 175.9673 184.1991 14.79577282104834
GOKTURK 1A              
1 41875U 16073A   26190.81893333  .00000194  00000+0  47131-4 0  9991
2 41875  98.1221  85.1357 0001436  79.0977 281.0387 14.62790877512134
RESOURCESAT-2A          
1 41877U 16074A   26190.80430802 -.00000069  00000+0 -11393-4 0  9995
2 41877  98.7518 264.1232 0002697  39.9393 320.1982 14.21607682497515
CARTOSAT-2D             
1 41948U 17008A   26190.88148972  .00002030  00000+0  99505-4 0  9993
2 41948  97.4099 249.7618 0005566 153.0475 207.1050 15.19257957521026
SENTINEL-2B             
1 42063U 17013A   26190.86483958 -.00000026  00000+0  67949-5 0  9994
2 42063  98.5682 265.3188 0001212  89.6854 270.4468 14.30814113487886
CARTOSAT-2E             
1 42767U 17036C   26190.83329126  .00001925  00000+0  94628-4 0  9994
2 42767  97.4267 250.2611 0002721 211.1833 148.9241 15.19227395501583
FORMOSAT-5              
1 42920U 17049A   26190.81072279  .00000048  00000+0  23182-4 0  9993
2 42920  98.2247 265.6173 0011707  20.1491 340.0164 14.50906840469952
SENTINEL-5P             
1 42969U 17064A   26190.26397104  .00000013  00000+0  27045-4 0  9993
2 42969  98.7929 132.2387 0001092  91.8163 268.3138 14.19522668452693
SKYSAT-C11              
1 42987U 17068A   26190.65835404  .00021499  00000+0  27645-3 0  9996
2 42987  97.4368 340.4901 0000812 166.0165 194.1114 15.59105762486747
SKYSAT-C10              
1 42988U 17068B   26190.65457372  .00007814  00000+0  23222-3 0  9993
2 42988  97.4523 327.7297 0001361 109.0541 251.0850 15.35042344485808
SKYSAT-C9               
1 42989U 17068C   26190.62943440  .00009130  00000+0  21510-3 0  9998
2 42989  97.4443 328.8560 0009065  62.2816 297.9349 15.42121068486216
SKYSAT-C8               
1 42990U 17068D   26190.65650339  .00007514  00000+0  20712-3 0  9992
2 42990  97.4543 327.6180 0001224  99.9689 260.1694 15.37418485485768
SKYSAT-C7               
1 42991U 17068E   26190.65081502  .00007316  00000+0  20193-3 0  9996
2 42991  97.4551 328.6033 0006199  39.6493 320.5204 15.37370143485829
SKYSAT-C6               
1 42992U 17068F   26190.64887444  .00006518  00000+0  19987-3 0  9997
2 42992  97.4588 328.4799 0005163 103.1836 256.9983 15.34106572485764
CARTOSAT-2F             
1 43111U 18004A   26190.86590083  .00001275  00000+0  63753-4 0  9992
2 43111  97.4777 250.2777 0002286 144.5233 215.6154 15.19241385470771
GAOFEN-1 02             
1 43259U 18031A   26190.86628001  .00000354  00000+0  58269-4 0  9990
2 43259  98.0515 253.3287 0001734 315.9392  44.1679 14.76466876446044
GAOFEN-1 03             
1 43260U 18031B   26190.84434463  .00000449  00000+0  71906-4 0  9995
2 43260  98.0506 253.1627 0002835  29.9230 330.2141 14.76457937446038
GAOFEN-1 04             
1 43262U 18031D   26190.88784762  .00000520  00000+0  82143-4 0  9996
2 43262  98.0516 253.3997 0001531  57.8364 302.2993 14.76467311446034
SENTINEL-3B             
1 43437U 18039A   26190.14034432  .00000049  00000+0  38281-4 0  9999
2 43437  98.6239 257.3566 0001006 120.1387 239.9893 14.26740920427251
GAOFEN-5 01             
1 43461U 18043A   26190.66830025  .00000209  00000+0  53023-4 0  9999
2 43461  98.4586 162.7286 0002397  43.0598 317.0789 14.60621115434971
GAOFEN-6                
1 43484U 18048A   26190.91008998 -.00000041  00000+0  16220-5 0  9997
2 43484  98.0963 253.5997 0012105  97.2848 262.9737 14.76379594436742
GAOFEN-11 01            
1 43585U 18063A   26190.88040392  .00008964  00000+0  13054-3 0  9997
2 43585  97.1281 257.7029 0002538 223.4806 136.6250 15.55954656443870
ICESAT-2                
1 43613U 18070A   26190.81091602  .00006602  00000+0  23956-3 0  9999
2 43613  92.0085 297.0925 0005837  76.8732 283.3168 15.28289273435913
HYSIS                   
1 43719U 18096A   26190.81348870  .00000760  00000+0  11079-3 0  9998
2 43719  97.9828 257.3831 0001855  86.7674 273.3749 14.78663823410766
